start=new Date('2022-03-25T00:00:00.000Z').valueOf();
sats=[{"SITE":"AFETR","APOAPSIS":"548.830","MEAN_ANOMALY":"295.5929","NORAD_CAT_ID":"47354","DECAY_DATE":null,"TIME_SYSTEM":"UTC","BSTAR":"0.00011507000000","MEAN_ELEMENT_THEORY":"SGP4","OBJECT_ID":"2021-005F","REF_FRAME":"TEME","FILE":"3373054","GP_ID":"199619591","REV_AT_EPOCH":"6561","MEAN_MOTION_DDOT":"0.0000000000000","EPOCH":"2022-03-24T20:52:00.266592","TLE_LINE2":"2 47354  53.0548  37.1587 0002358  64.5304 295.5929 15.06405279 65619","TLE_LINE1":"1 47354U 21005F   22083.86944753  .00001433  00000-0  11507-3 0  9990","ELEMENT_SET_NO":"999","OBJECT_NAME":"STARLINK-2046","MEAN_MOTION_DOT":"0.00001433","RCS_SIZE":"LARGE","CENTER_NAME":"EARTH","SEMIMAJOR_AXIS":"6925.332","PERIAPSIS":"545.564","OBJECT_TYPE":"PAYLOAD","ECCENTRICITY":"0.00023580","RA_OF_ASC_NODE":"37.1587","PERIOD":"95.592","CLASSIFICATION_TYPE":"U","LAUNCH_DATE":"2021-01-20","EPHEMERIS_TYPE":"0","COUNTRY_CODE":"US","ARG_OF_PERICENTER":"64.5304","INCLINATION":"53.0548","MEAN_MOTION":"15.06405279"},{"ELEMENT_SET_NO":"999","TLE_LINE1":"1 47355U 21005G   22083.89110378  .00002041  00000-0  15587-3 0  9990","TLE_LINE2":"2 47355  53.0439  22.1088 0001866  63.1722 296.9458 15.06401202 65828","EPOCH":"2022-03-24T21:23:11.366592","MEAN_MOTION_DDOT":"0.0000000000000","REV_AT_EPOCH":"6582","GP_ID":"199620341","FILE":"3373054","REF_FRAME":"TEME","MEAN_ELEMENT_THEORY":"SGP4","OBJECT_ID":"2021-005G","BSTAR":"0.00015587000000","TIME_SYSTEM":"UTC","DECAY_DATE":null,"NORAD_CAT_ID":"47355","MEAN_ANOMALY":"296.9458","SITE":"AFETR","APOAPSIS":"548.502","MEAN_MOTION":"15.06401202","INCLINATION":"53.0439","ARG_OF_PERICENTER":"63.1722","COUNTRY_CODE":"US","EPHEMERIS_TYPE":"0","LAUNCH_DATE":"2021-01-20","CLASSIFICATION_TYPE":"U","RA_OF_ASC_NODE":"22.1088","PERIOD":"95.592","OBJECT_TYPE":"PAYLOAD","ECCENTRICITY":"0.00018660","PERIAPSIS":"545.918","SEMIMAJOR_AXIS":"6925.345","CENTER_NAME":"EARTH","MEAN_MOTION_DOT":"0.00002041","RCS_SIZE":"LARGE","OBJECT_NAME":"STARLINK-2047"},{"TIME_SYSTEM":"UTC","DECAY_DATE":null,"MEAN_ELEMENT_THEORY":"SGP4","OBJECT_ID":"2021-005H","BSTAR":"0.00014274000000","REF_FRAME":"TEME","SITE":"AFETR","APOAPSIS":"548.441","MEAN_ANOMALY":"300.4909","NORAD_CAT_ID":"47356","EPOCH":"2022-03-24T20:54:00.535392","TLE_LINE1":"1 47356U 21005H   22083.87083953  .00001845  00000-0  14274-3 0  9990","TLE_LINE2":"2 47356  53.0567  42.1643 0001773  59.6255 300.4909 15.06400261 65543","ELEMENT_SET_NO":"999","FILE":"3373054","GP_ID":"199620593","REV_AT_EPOCH":"6554","MEAN_MOTION_DDOT":"0.0000000000000","CENTER_NAME":"EARTH","SEMIMAJOR_AXIS":"6925.348","OBJECT_NAME":"STARLINK-2049","RCS_SIZE":"LARGE","MEAN_MOTION_DOT":"0.00001845","LAUNCH_DATE":"2021-01-20","EPHEMERIS_TYPE":"0","COUNTRY_CODE":"US","ARG_OF_PERICENTER":"59.6255","MEAN_MOTION":"15.06400261","INCLINATION":"53.0567","PERIAPSIS":"545.985","OBJECT_TYPE":"PAYLOAD","ECCENTRICITY":"0.00017730","PERIOD":"95.592","RA_OF_ASC_NODE":"42.1643","CLASSIFICATION_TYPE":"U"},{"INCLINATION":"53.0548","MEAN_MOTION":"15.06403002","ARG_OF_PERICENTER":"54.1736","COUNTRY_CODE":"US","EPHEMERIS_TYPE":"0","LAUNCH_DATE":"2021-01-20","CLASSIFICATION_TYPE":"U","PERIOD":"95.592","RA_OF_ASC_NODE":"71.8066","ECCENTRICITY":"0.00017330","OBJECT_TYPE":"PAYLOAD","PERIAPSIS":"546.004","SEMIMAJOR_AXIS":"6925.339","CENTER_NAME":"EARTH","RCS_SIZE":"LARGE","MEAN_MOTION_DOT":"0.00001117","OBJECT_NAME":"STARLINK-2050","ELEMENT_SET_NO":"999","TLE_LINE2":"2 47357  53.0548  71.8066 0001733  54.1736 305.9414 15.06403002 65133","TLE_LINE1":"1 47357U 21005J   22083.94547356  .00001117  00000-0  93848-4 0  9998","EPOCH":"2022-03-24T22:41:28.915584","MEAN_MOTION_DDOT":"0.0000000000000","REV_AT_EPOCH":"6513","GP_ID":"199621343","FILE":"3373054","REF_FRAME":"TEME","BSTAR":"0.00009384800000","OBJECT_ID":"2021-005J","MEAN_ELEMENT_THEORY":"SGP4","DECAY_DATE":null,"TIME_SYSTEM":"UTC","NORAD_CAT_ID":"47357","MEAN_ANOMALY":"305.9414","SITE":"AFETR","APOAPSIS":"548.405"},{"MEAN_MOTION_DOT":"0.00000282","RCS_SIZE":"LARGE","OBJECT_NAME":"STARLINK-2055","SEMIMAJOR_AXIS":"6925.338","CENTER_NAME":"EARTH","CLASSIFICATION_TYPE":"U","PERIOD":"95.592","RA_OF_ASC_NODE":"42.1059","OBJECT_TYPE":"PAYLOAD","PERIAPSIS":"545.981","ECCENTRICITY":"0.00017650","MEAN_MOTION":"15.06403477","INCLINATION":"53.0565","ARG_OF_PERICENTER":"57.4950","EPHEMERIS_TYPE":"0","COUNTRY_CODE":"US","LAUNCH_DATE":"2021-01-20","NORAD_CAT_ID":"47358","MEAN_ANOMALY":"302.6209","SITE":"AFETR","APOAPSIS":"548.425","REF_FRAME":"TEME","OBJECT_ID":"2021-005K","MEAN_ELEMENT_THEORY":"SGP4","BSTAR":"0.00003785500000","TIME_SYSTEM":"UTC","DECAY_DATE":null,"MEAN_MOTION_DDOT":"0.0000000000000","REV_AT_EPOCH":"6554","GP_ID":"199620091","FILE":"3373054","ELEMENT_SET_NO":"999","TLE_LINE1":"1 47358U 21005K   22083.88188841  .00000282  00000-0  37855-4 0  9990","TLE_LINE2":"2 47358  53.0565  42.1059 0001765  57.4950 302.6209 15.06403477 65542","EPOCH":"2022-03-24T21:09:55.158624"},{"ECCENTRICITY":"0.00017130","OBJECT_TYPE":"PAYLOAD","PERIAPSIS":"546.040","RA_OF_ASC_NODE":"69.4304","PERIOD":"95.592","CLASSIFICATION_TYPE":"U","LAUNCH_DATE":"2021-01-20","EPHEMERIS_TYPE":"0","COUNTRY_CODE":"US","ARG_OF_PERICENTER":"64.5651","INCLINATION":"53.0539","MEAN_MOTION":"15.06395835","OBJECT_NAME":"STARLINK-2069","RCS_SIZE":"LARGE","MEAN_MOTION_DOT":"0.00000530","CENTER_NAME":"EARTH","SEMIMAJOR_AXIS":"6925.361","FILE":"3372185","GP_ID":"199574564","REV_AT_EPOCH":"6511","MEAN_MOTION_DDOT":"0.0000000000000","EPOCH":"2022-03-24T08:40:52.169952","TLE_LINE2":"2 47359  53.0539  69.4304 0001713  64.5651 295.5515 15.06395835 65110","TLE_LINE1":"1 47359U 21005L   22083.36171493  .00000530  00000-0  54470-4 0  9997","ELEMENT_SET_NO":"999","APOAPSIS":"548.413","SITE":"AFETR","MEAN_ANOMALY":"295.5515","NORAD_CAT_ID":"47359","DECAY_DATE":null,"TIME_SYSTEM":"UTC","BSTAR":"0.00005447000000","MEAN_ELEMENT_THEORY":"SGP4","OBJECT_ID":"2021-005L","REF_FRAME":"TEME"},{"SITE":"AFETR","APOAPSIS":"548.506","NORAD_CAT_ID":"47360","MEAN_ANOMALY":"308.9339","DECAY_DATE":null,"TIME_SYSTEM":"UTC","REF_FRAME":"TEME","BSTAR":"0.00015081000000","MEAN_ELEMENT_THEORY":"SGP4","OBJECT_ID":"2021-005M","GP_ID":"199621093","FILE":"3373054","MEAN_MOTION_DDOT":"0.0000000000000","REV_AT_EPOCH":"6562","TLE_LINE2":"2 47360  53.0565  37.0342 0001861  51.1816 308.9339 15.06398760 65622","TLE_LINE1":"1 47360U 21005M   22083.89894210  .00001965  00000-0  15081-3 0  9993","EPOCH":"2022-03-24T21:34:28.597440","ELEMENT_SET_NO":"999","OBJECT_NAME":"STARLINK-2070","RCS_SIZE":"LARGE","MEAN_MOTION_DOT":"0.00001965","SEMIMAJOR_AXIS":"6925.352","CENTER_NAME":"EARTH","PERIOD":"95.592","RA_OF_ASC_NODE":"37.0342","OBJECT_TYPE":"PAYLOAD","ECCENTRICITY":"0.00018610","PERIAPSIS":"545.929","CLASSIFICATION_TYPE":"U","EPHEMERIS_TYPE":"0","COUNTRY_CODE":"US","LAUNCH_DATE":"2021-01-20","INCLINATION":"53.0565","MEAN_MOTION":"15.06398760","ARG_OF_PERICENTER":"51.1816"},{"SEMIMAJOR_AXIS":"6925.341","CENTER_NAME":"EARTH","OBJECT_NAME":"STARLINK-2071","MEAN_MOTION_DOT":"0.00000499","RCS_SIZE":"LARGE","EPHEMERIS_TYPE":"0","COUNTRY_CODE":"US","LAUNCH_DATE":"2021-01-20","MEAN_MOTION":"15.06402541","INCLINATION":"53.0566","ARG_OF_PERICENTER":"52.8599","RA_OF_ASC_NODE":"42.3628","PERIOD":"95.592","OBJECT_TYPE":"PAYLOAD","ECCENTRICITY":"0.00018650","PERIAPSIS":"545.914","CLASSIFICATION_TYPE":"U","TIME_SYSTEM":"UTC","DECAY_DATE":null,"REF_FRAME":"TEME","MEAN_ELEMENT_THEORY":"SGP4","OBJECT_ID":"2021-005N","BSTAR":"0.00005240500000","APOAPSIS":"548.497","SITE":"AFETR","NORAD_CAT_ID":"47361","MEAN_ANOMALY":"307.2560","TLE_LINE1":"1 47361U 21005N   22083.82291062  .00000499  00000-0  52405-4 0  9996","TLE_LINE2":"2 47361  53.0566  42.3628 0001865  52.8599 307.2560 15.06402541 65531","EPOCH":"2022-03-24T19:44:59.477568","ELEMENT_SET_NO":"999","GP_ID":"199620844","FILE":"3373054","MEAN_MOTION_DDOT":"0.0000000000000","REV_AT_EPOCH":"6553"},{"CLASSIFICATION_TYPE":"U","ECCENTRICITY":"0.00016780","OBJECT_TYPE":"PAYLOAD","PERIAPSIS":"546.032","RA_OF_ASC_NODE":"73.0573","PERIOD":"95.592","ARG_OF_PERICENTER":"58.4478","INCLINATION":"53.0541","MEAN_MOTION":"15.06406321","LAUNCH_DATE":"2021-01-20","EPHEMERIS_TYPE":"0","COUNTRY_CODE":"US","MEAN_MOTION_DOT":"-0.00001371","RCS_SIZE":"LARGE","OBJECT_NAME":"STARLINK-2076","CENTER_NAME":"EARTH","SEMIMAJOR_AXIS":"6925.329","REV_AT_EPOCH":"6509","MEAN_MOTION_DDOT":"0.0000000000000","FILE":"3373054","GP_ID":"199619592","ELEMENT_SET_NO":"999","EPOCH":"2022-03-24T16:03:24.649056","TLE_LINE2":"2 47362  53.0541  73.0573 0001678  58.4478 301.6675 15.06406321 65091","TLE_LINE1":"1 47362U 21005P   22083.66903529 -.00001371  00000-0 -73129-4 0  9995","MEAN_ANOMALY":"301.6675","NORAD_CAT_ID":"47362","SITE":"AFETR","APOAPSIS":"548.356","BSTAR":"-0.00007312900000","OBJECT_ID":"2021-005P","MEAN_ELEMENT_THEORY":"SGP4","REF_FRAME":"TEME","DECAY_DATE":null,"TIME_SYSTEM":"UTC"},{"EPOCH":"2022-03-24T16:08:42.518976","TLE_LINE2":"2 47363  53.0543  73.0295 0001952  50.6922 309.4239 15.06400642 65090","TLE_LINE1":"1 47363U 21005Q   22083.67271434  .00001801  00000-0  13979-3 0  9992","ELEMENT_SET_NO":"999","FILE":"3373054","GP_ID":"199620342","REV_AT_EPOCH":"6509","MEAN_MOTION_DDOT":"0.0000000000000","DECAY_DATE":null,"TIME_SYSTEM":"UTC","BSTAR":"0.00013979000000","OBJECT_ID":"2021-005Q","MEAN_ELEMENT_THEORY":"SGP4","REF_FRAME":"TEME","APOAPSIS":"548.563","SITE":"AFETR","MEAN_ANOMALY":"309.4239","NORAD_CAT_ID":"47363","LAUNCH_DATE":"2021-01-20","COUNTRY_CODE":"US","EPHEMERIS_TYPE":"0","ARG_OF_PERICENTER":"50.6922","INCLINATION":"53.0543","MEAN_MOTION":"15.06400642","PERIAPSIS":"545.860","OBJECT_TYPE":"PAYLOAD","ECCENTRICITY":"0.00019520","RA_OF_ASC_NODE":"73.0295","PERIOD":"95.592","CLASSIFICATION_TYPE":"U","CENTER_NAME":"EARTH","SEMIMAJOR_AXIS":"6925.347","OBJECT_NAME":"STARLINK-2077","RCS_SIZE":"LARGE","MEAN_MOTION_DOT":"0.00001801"}];
